STARLINK-35676          
1 67345U 26003M   26017.25002315 -.01547573  68856-3 -39626-2 0  9998
2 67345  42.9982 165.5641 0001543 269.7717 165.1196 15.94472156  2398
STARLINK-36472          
1 67346U 26003N   26017.25002315 -.01559245  69855-3 -39803-2 0  9995
2 67346  42.9983 165.5593 0001526 269.2780 167.3573 15.94531151  2396
STARLINK-36420          
1 67347U 26003P   26017.25002315 -.01576013  71328-3 -39981-2 0  9993
2 67347  42.9983 165.5493 0001629 271.0697 169.5745 15.94649590  2402
STARLINK-36467          
1 67348U 26003Q   26017.25002315 -.01572518  71000-3 -40004-2 0  9995
2 67348  42.9983 165.5542 0001602 271.1056 167.7720 15.94596998  2405
STARLINK-36457          
1 67349U 26003R   26017.25002315 -.01587805  72362-3 -40141-2 0  9995
2 67349  42.9983 165.5436 0001553 268.9680 174.0050 15.94716002  2407
STARLINK-36475          
1 67350U 26003S   26017.25002315 -.01597054  73187-3 -40240-2 0  9990
2 67350  42.9983 165.5378 0001575 272.7910 172.4053 15.94779630  2396
STARLINK-36478          
1 67351U 26003T   26017.25002315 -.01604912  73893-3 -40321-2 0  9997
2 67351  42.9984 165.5337 0001670 270.7269 176.1019 15.94834087  2395
STARLINK-36479          
1 67352U 26003U   26017.25002315 -.01609753  74344-3 -40328-2 0  9995
2 67352  42.9984 165.5294 0001657 268.2685 180.2709 15.94887788  2407
STARLINK-36474          
1 67353U 26003V   26017.25002315 -.01606264  74089-3 -40120-2 0  9996
2 67353  42.9982 165.5246 0001543 267.6192 182.9924 15.94943310  2405
STARLINK-36448          
1 67354U 26003W   26017.25002315 -.01623925  75730-3 -40192-2 0  9993
2 67354  42.9984 165.5098 0001528 266.0215 190.3017 15.95115653  2403
STARLINK-36477          
1 67355U 26003X   26017.25002315 -.01628552  76051-3 -40525-2 0  9992
2 67355  42.9984 165.5187 0001614 270.3431 182.5419 15.95015758  2399
STARLINK-36429          
1 67356U 26003Y   26017.25002315 -.01627891  76032-3 -40400-2 0  9999
2 67356  42.9985 165.5142 0001664 272.1695 182.4809 15.95065327  2398
