CCSDS_OMM_VERS = 2.0
CREATION_DATE  = 
ORIGINATOR     = 

OBJECT_NAME    = STARLINK-35676
OBJECT_ID      = 2026-003M
CENTER_NAME    = EARTH
REF_FRAME      = TEME
TIME_SYSTEM    = UTC
MEAN_ELEMENT_THEORY = SGP/SGP4

EPOCH          = 2026-01-17T06:00:02.000160
MEAN_MOTION    = 15.94472156
ECCENTRICITY   = .00015438
INCLINATION    = 42.9982
RA_OF_ASC_NODE = 165.5641
ARG_OF_PERICENTER = 269.7717
MEAN_ANOMALY   = 165.1196

EPHEMERIS_TYPE = 0
CLASSIFICATION_TYPE = U
NORAD_CAT_ID   = 67345
ELEMENT_SET_NO = 999
REV_AT_EPOCH   = 239
BSTAR          = -.39626038E-2
MEAN_MOTION_DOT = -.1547573E-1
MEAN_MOTION_DDOT = .68855614E-3

CCSDS_OMM_VERS = 2.0
CREATION_DATE  = 
ORIGINATOR     = 

OBJECT_NAME    = STARLINK-36472
OBJECT_ID      = 2026-003N
CENTER_NAME    = EARTH
REF_FRAME      = TEME
TIME_SYSTEM    = UTC
MEAN_ELEMENT_THEORY = SGP/SGP4

EPOCH          = 2026-01-17T06:00:02.000160
MEAN_MOTION    = 15.94531151
ECCENTRICITY   = .00015267
INCLINATION    = 42.9983
RA_OF_ASC_NODE = 165.5593
ARG_OF_PERICENTER = 269.2780
MEAN_ANOMALY   = 167.3573

EPHEMERIS_TYPE = 0
CLASSIFICATION_TYPE = U
NORAD_CAT_ID   = 67346
ELEMENT_SET_NO = 999
REV_AT_EPOCH   = 239
BSTAR          = -.39802754E-2
MEAN_MOTION_DOT = -.1559245E-1
MEAN_MOTION_DDOT = .69855134E-3

CCSDS_OMM_VERS = 2.0
CREATION_DATE  = 
ORIGINATOR     = 

OBJECT_NAME    = STARLINK-36420
OBJECT_ID      = 2026-003P
CENTER_NAME    = EARTH
REF_FRAME      = TEME
TIME_SYSTEM    = UTC
MEAN_ELEMENT_THEORY = SGP/SGP4

EPOCH          = 2026-01-17T06:00:02.000160
MEAN_MOTION    = 15.94649590
ECCENTRICITY   = .00016298
INCLINATION    = 42.9983
RA_OF_ASC_NODE = 165.5493
ARG_OF_PERICENTER = 271.0697
MEAN_ANOMALY   = 169.5745

EPHEMERIS_TYPE = 0
CLASSIFICATION_TYPE = U
NORAD_CAT_ID   = 67347
ELEMENT_SET_NO = 999
REV_AT_EPOCH   = 240
BSTAR          = -.39980737E-2
MEAN_MOTION_DOT = -.1576013E-1
MEAN_MOTION_DDOT = .71328412E-3

CCSDS_OMM_VERS = 2.0
CREATION_DATE  = 
ORIGINATOR     = 

OBJECT_NAME    = STARLINK-36467
OBJECT_ID      = 2026-003Q
CENTER_NAME    = EARTH
REF_FRAME      = TEME
TIME_SYSTEM    = UTC
MEAN_ELEMENT_THEORY = SGP/SGP4

EPOCH          = 2026-01-17T06:00:02.000160
MEAN_MOTION    = 15.94596998
ECCENTRICITY   = .00016029
INCLINATION    = 42.9983
RA_OF_ASC_NODE = 165.5542
ARG_OF_PERICENTER = 271.1056
MEAN_ANOMALY   = 167.7720

EPHEMERIS_TYPE = 0
CLASSIFICATION_TYPE = U
NORAD_CAT_ID   = 67348
ELEMENT_SET_NO = 999
REV_AT_EPOCH   = 240
BSTAR          = -.40003893E-2
MEAN_MOTION_DOT = -.1572518E-1
MEAN_MOTION_DDOT = .71000083E-3

CCSDS_OMM_VERS = 2.0
CREATION_DATE  = 
ORIGINATOR     = 

OBJECT_NAME    = STARLINK-36457
OBJECT_ID      = 2026-003R
CENTER_NAME    = EARTH
REF_FRAME      = TEME
TIME_SYSTEM    = UTC
MEAN_ELEMENT_THEORY = SGP/SGP4

EPOCH          = 2026-01-17T06:00:02.000160
MEAN_MOTION    = 15.94716002
ECCENTRICITY   = .00015532
INCLINATION    = 42.9983
RA_OF_ASC_NODE = 165.5436
ARG_OF_PERICENTER = 268.9680
MEAN_ANOMALY   = 174.0050

EPHEMERIS_TYPE = 0
CLASSIFICATION_TYPE = U
NORAD_CAT_ID   = 67349
ELEMENT_SET_NO = 999
REV_AT_EPOCH   = 240
BSTAR          = -.40140788E-2
MEAN_MOTION_DOT = -.1587805E-1
MEAN_MOTION_DDOT = .72362401E-3

CCSDS_OMM_VERS = 2.0
CREATION_DATE  = 
ORIGINATOR     = 

OBJECT_NAME    = STARLINK-36475
OBJECT_ID      = 2026-003S
CENTER_NAME    = EARTH
REF_FRAME      = TEME
TIME_SYSTEM    = UTC
MEAN_ELEMENT_THEORY = SGP/SGP4

EPOCH          = 2026-01-17T06:00:02.000160
MEAN_MOTION    = 15.94779630
ECCENTRICITY   = .00015758
INCLINATION    = 42.9983
RA_OF_ASC_NODE = 165.5378
ARG_OF_PERICENTER = 272.7910
MEAN_ANOMALY   = 172.4053

EPHEMERIS_TYPE = 0
CLASSIFICATION_TYPE = U
NORAD_CAT_ID   = 67350
ELEMENT_SET_NO = 999
REV_AT_EPOCH   = 239
BSTAR          = -.4023962E-2
MEAN_MOTION_DOT = -.1597054E-1
MEAN_MOTION_DDOT = .7318737E-3

CCSDS_OMM_VERS = 2.0
CREATION_DATE  = 
ORIGINATOR     = 

OBJECT_NAME    = STARLINK-36478
OBJECT_ID      = 2026-003T
CENTER_NAME    = EARTH
REF_FRAME      = TEME
TIME_SYSTEM    = UTC
MEAN_ELEMENT_THEORY = SGP/SGP4

EPOCH          = 2026-01-17T06:00:02.000160
MEAN_MOTION    = 15.94834087
ECCENTRICITY   = .00016705
INCLINATION    = 42.9984
RA_OF_ASC_NODE = 165.5337
ARG_OF_PERICENTER = 270.7269
MEAN_ANOMALY   = 176.1019

EPHEMERIS_TYPE = 0
CLASSIFICATION_TYPE = U
NORAD_CAT_ID   = 67351
ELEMENT_SET_NO = 999
REV_AT_EPOCH   = 239
BSTAR          = -.40321231E-2
MEAN_MOTION_DOT = -.1604912E-1
MEAN_MOTION_DDOT = .73892665E-3

CCSDS_OMM_VERS = 2.0
CREATION_DATE  = 
ORIGINATOR     = 

OBJECT_NAME    = STARLINK-36479
OBJECT_ID      = 2026-003U
CENTER_NAME    = EARTH
REF_FRAME      = TEME
TIME_SYSTEM    = UTC
MEAN_ELEMENT_THEORY = SGP/SGP4

EPOCH          = 2026-01-17T06:00:02.000160
MEAN_MOTION    = 15.94887788
ECCENTRICITY   = .00016579
INCLINATION    = 42.9984
RA_OF_ASC_NODE = 165.5294
ARG_OF_PERICENTER = 268.2685
MEAN_ANOMALY   = 180.2709

EPHEMERIS_TYPE = 0
CLASSIFICATION_TYPE = U
NORAD_CAT_ID   = 67352
ELEMENT_SET_NO = 999
REV_AT_EPOCH   = 240
BSTAR          = -.40327769E-2
MEAN_MOTION_DOT = -.1609753E-1
MEAN_MOTION_DDOT = .74344171E-3

CCSDS_OMM_VERS = 2.0
CREATION_DATE  = 
ORIGINATOR     = 

OBJECT_NAME    = STARLINK-36474
OBJECT_ID      = 2026-003V
CENTER_NAME    = EARTH
REF_FRAME      = TEME
TIME_SYSTEM    = UTC
MEAN_ELEMENT_THEORY = SGP/SGP4

EPOCH          = 2026-01-17T06:00:02.000160
MEAN_MOTION    = 15.94943310
ECCENTRICITY   = .00015437
INCLINATION    = 42.9982
RA_OF_ASC_NODE = 165.5246
ARG_OF_PERICENTER = 267.6192
MEAN_ANOMALY   = 182.9924

EPHEMERIS_TYPE = 0
CLASSIFICATION_TYPE = U
NORAD_CAT_ID   = 67353
ELEMENT_SET_NO = 999
REV_AT_EPOCH   = 240
BSTAR          = -.40119863E-2
MEAN_MOTION_DOT = -.1606264E-1
MEAN_MOTION_DDOT = .74089105E-3

CCSDS_OMM_VERS = 2.0
CREATION_DATE  = 
ORIGINATOR     = 

OBJECT_NAME    = STARLINK-36448
OBJECT_ID      = 2026-003W
CENTER_NAME    = EARTH
REF_FRAME      = TEME
TIME_SYSTEM    = UTC
MEAN_ELEMENT_THEORY = SGP/SGP4

EPOCH          = 2026-01-17T06:00:02.000160
MEAN_MOTION    = 15.95115653
ECCENTRICITY   = .00015289
INCLINATION    = 42.9984
RA_OF_ASC_NODE = 165.5098
ARG_OF_PERICENTER = 266.0215
MEAN_ANOMALY   = 190.3017

EPHEMERIS_TYPE = 0
CLASSIFICATION_TYPE = U
NORAD_CAT_ID   = 67354
ELEMENT_SET_NO = 999
REV_AT_EPOCH   = 240
BSTAR          = -.40191501E-2
MEAN_MOTION_DOT = -.1623925E-1
MEAN_MOTION_DDOT = .75729523E-3

CCSDS_OMM_VERS = 2.0
CREATION_DATE  = 
ORIGINATOR     = 

OBJECT_NAME    = STARLINK-36477
OBJECT_ID      = 2026-003X
CENTER_NAME    = EARTH
REF_FRAME      = TEME
TIME_SYSTEM    = UTC
MEAN_ELEMENT_THEORY = SGP/SGP4

EPOCH          = 2026-01-17T06:00:02.000160
MEAN_MOTION    = 15.95015758
ECCENTRICITY   = .00016146
INCLINATION    = 42.9984
RA_OF_ASC_NODE = 165.5187
ARG_OF_PERICENTER = 270.3431
MEAN_ANOMALY   = 182.5419

EPHEMERIS_TYPE = 0
CLASSIFICATION_TYPE = U
NORAD_CAT_ID   = 67355
ELEMENT_SET_NO = 999
REV_AT_EPOCH   = 239
BSTAR          = -.40524764E-2
MEAN_MOTION_DOT = -.1628552E-1
MEAN_MOTION_DDOT = .76050781E-3

CCSDS_OMM_VERS = 2.0
CREATION_DATE  = 
ORIGINATOR     = 

OBJECT_NAME    = STARLINK-36429
OBJECT_ID      = 2026-003Y
CENTER_NAME    = EARTH
REF_FRAME      = TEME
TIME_SYSTEM    = UTC
MEAN_ELEMENT_THEORY = SGP/SGP4

EPOCH          = 2026-01-17T06:00:02.000160
MEAN_MOTION    = 15.95065327
ECCENTRICITY   = .0001664
INCLINATION    = 42.9985
RA_OF_ASC_NODE = 165.5142
ARG_OF_PERICENTER = 272.1695
MEAN_ANOMALY   = 182.4809

EPHEMERIS_TYPE = 0
CLASSIFICATION_TYPE = U
NORAD_CAT_ID   = 67356
ELEMENT_SET_NO = 999
REV_AT_EPOCH   = 239
BSTAR          = -.40399621E-2
MEAN_MOTION_DOT = -.1627891E-1
MEAN_MOTION_DDOT = .76032008E-3

